{"type": "FeatureCollection", "features": [{"type": "Feature", "properties": {"norad_id": 2807, "name": "OPS 7218 (TRANSIT 16)", "group": "nnss", "lat": -61.23856966763633, "lon": 174.70636367809834, "alt_km": 1084.8477833772622, "timestamp": "2025-12-09T21:34:11.676273+00:00", "meta": {"OBJECT_NAME": "OPS 7218 (TRANSIT 16)", "OBJECT_ID": "1967-048A", "EPOCH": "2025-12-09T12:15:09.098208", "MEAN_MOTION": 13.50721383, "ECCENTRICITY": 0.00218143, "INCLINATION": 89.6732, "RA_OF_ASC_NODE": 354.1234, "ARG_OF_PERICENTER": 122.7189, "MEAN_ANOMALY": 31.5887, "EPHEMERIS_TYPE": 0, "CLASSIFICATION_TYPE": "U", "NORAD_CAT_ID": 2807, "ELEMENT_SET_NO": 999, "REV_AT_EPOCH": 88232, "BSTAR": 0.00022437316, "MEAN_MOTION_DOT": 1.55e-06, "MEAN_MOTION_DDOT": 0}, "tle": {"line1": "1 02807U 67048A   25343.51052197  .00000155  00000+0  22437-3 0  9990", "line2": "2 02807  89.6732 354.1234 0021814 122.7189  31.5887 13.50721383882320"}}, "geometry": {"type": "Point", "coordinates": [174.70636367809834, -61.23856966763633]}}, {"type": "Feature", "properties": {"norad_id": 2965, "name": "OPS 4947 (TRANSIT 17)", "group": "nnss", "lat": -82.13104586605654, "lon": 19.213493973419773, "alt_km": 1038.8979508621396, "timestamp": "2025-12-09T21:34:11.676296+00:00", "meta": {"OBJECT_NAME": "OPS 4947 (TRANSIT 17)", "OBJECT_ID": "1967-092A", "EPOCH": "2025-12-09T09:36:30.324672", "MEAN_MOTION": 13.53452312, "ECCENTRICITY": 0.00459991, "INCLINATION": 89.2499, "RA_OF_ASC_NODE": 24.6904, "ARG_OF_PERICENTER": 244.5157, "MEAN_ANOMALY": 126.0877, "EPHEMERIS_TYPE": 0, "CLASSIFICATION_TYPE": "U", "NORAD_CAT_ID": 2965, "ELEMENT_SET_NO": 999, "REV_AT_EPOCH": 87052, "BSTAR": 0.00025971381, "MEAN_MOTION_DOT": 1.87e-06, "MEAN_MOTION_DDOT": 0}, "tle": {"line1": "1 02965U 67092A   25343.40035098  .00000187  00000+0  25971-3 0  9994", "line2": "2 02965  89.2499  24.6904 0045999 244.5157 126.0877 13.53452312870526"}}, "geometry": {"type": "Point", "coordinates": [19.213493973419773, -82.13104586605654]}}, {"type": "Feature", "properties": {"norad_id": 3133, "name": "OPS 7034 (TRANSIT 18)", "group": "nnss", "lat": 85.17360527343777, "lon": -86.69633445303002, "alt_km": 1060.7810336273733, "timestamp": "2025-12-09T21:34:11.676310+00:00", "meta": {"OBJECT_NAME": "OPS 7034 (TRANSIT 18)", "OBJECT_ID": "1968-012A", "EPOCH": "2025-12-09T07:29:45.032928", "MEAN_MOTION": 13.5156455, "ECCENTRICITY": 0.0073521, "INCLINATION": 90.0276, "RA_OF_ASC_NODE": 273.6291, "ARG_OF_PERICENTER": 179.0874, "MEAN_ANOMALY": 295.335, "EPHEMERIS_TYPE": 0, "CLASSIFICATION_TYPE": "U", "NORAD_CAT_ID": 3133, "ELEMENT_SET_NO": 999, "REV_AT_EPOCH": 56872, "BSTAR": 0.00028816, "MEAN_MOTION_DOT": 2e-06, "MEAN_MOTION_DDOT": 0}, "tle": {"line1": "1 03133U 68012A   25343.31232677  .00000200  00000+0  28816-3 0  9994", "line2": "2 03133  90.0276 273.6291 0073521 179.0874 295.3350 13.51564550568720"}}, "geometry": {"type": "Point", "coordinates": [-86.69633445303002, 85.17360527343777]}}, {"type": "Feature", "properties": {"norad_id": 4507, "name": "NNSS 19 (TRANSIT 19)", "group": "nnss", "lat": 61.70771971008271, "lon": -125.47873250088162, "alt_km": 1123.5665580442346, "timestamp": "2025-12-09T21:34:11.676322+00:00", "meta": {"OBJECT_NAME": "NNSS 19 (TRANSIT 19)", "OBJECT_ID": "1970-067A", "EPOCH": "2025-12-09T10:36:12.002112", "MEAN_MOTION": 13.51314006, "ECCENTRICITY": 0.01707452, "INCLINATION": 90.0057, "RA_OF_ASC_NODE": 234.5316, "ARG_OF_PERICENTER": 303.0164, "MEAN_ANOMALY": 55.4679, "EPHEMERIS_TYPE": 0, "CLASSIFICATION_TYPE": "U", "NORAD_CAT_ID": 4507, "ELEMENT_SET_NO": 999, "REV_AT_EPOCH": 72177, "BSTAR": 0.00031890867, "MEAN_MOTION_DOT": 2.34e-06, "MEAN_MOTION_DDOT": 0}, "tle": {"line1": "1 04507U 70067A   25343.44180558  .00000234  00000+0  31891-3 0  9991", "line2": "2 04507  90.0057 234.5316 0170745 303.0164  55.4679 13.51314006721778"}}, "geometry": {"type": "Point", "coordinates": [-125.47873250088162, 61.70771971008271]}}, {"type": "Feature", "properties": {"norad_id": 6909, "name": "NNSS 20 (TRANSIT 20)", "group": "nnss", "lat": -73.42014997886004, "lon": -105.38664664234298, "alt_km": 1110.2317034256357, "timestamp": "2025-12-09T21:34:11.676334+00:00", "meta": {"OBJECT_NAME": "NNSS 20 (TRANSIT 20)", "OBJECT_ID": "1973-081A", "EPOCH": "2025-12-09T11:25:36.409440", "MEAN_MOTION": 13.71432035, "ECCENTRICITY": 0.0156617, "INCLINATION": 89.8562, "RA_OF_ASC_NODE": 255.103, "ARG_OF_PERICENTER": 87.977, "MEAN_ANOMALY": 273.932, "EPHEMERIS_TYPE": 0, "CLASSIFICATION_TYPE": "U", "NORAD_CAT_ID": 6909, "ELEMENT_SET_NO": 999, "REV_AT_EPOCH": 80316, "BSTAR": 0.00036387222, "MEAN_MOTION_DOT": 3.69e-06, "MEAN_MOTION_DDOT": 0}, "tle": {"line1": "1 06909U 73081A   25343.47611585  .00000369  00000+0  36387-3 0  9994", "line2": "2 06909  89.8562 255.1030 0156617  87.9770 273.9320 13.71432035803167"}}, "geometry": {"type": "Point", "coordinates": [-105.38664664234298, -73.42014997886004]}}, {"type": "Feature", "properties": {"norad_id": 10457, "name": "TRANSAT", "group": "nnss", "lat": 88.91854421965564, "lon": 97.69672954158142, "alt_km": 1074.6757946355601, "timestamp": "2025-12-09T21:34:11.676345+00:00", "meta": {"OBJECT_NAME": "TRANSAT", "OBJECT_ID": "1977-106A", "EPOCH": "2025-12-09T12:17:08.947968", "MEAN_MOTION": 13.48942917, "ECCENTRICITY": 0.00250865, "INCLINATION": 89.6481, "RA_OF_ASC_NODE": 78.7113, "ARG_OF_PERICENTER": 198.9497, "MEAN_ANOMALY": 172.8613, "EPHEMERIS_TYPE": 0, "CLASSIFICATION_TYPE": "U", "NORAD_CAT_ID": 10457, "ELEMENT_SET_NO": 999, "REV_AT_EPOCH": 36700, "BSTAR": 0.00021586545, "MEAN_MOTION_DOT": 1.45e-06, "MEAN_MOTION_DDOT": 0}, "tle": {"line1": "1 10457U 77106A   25343.51190912  .00000145  00000+0  21587-3 0  9998", "line2": "2 10457  89.6481  78.7113 0025086 198.9497 172.8613 13.48942917367002"}}, "geometry": {"type": "Point", "coordinates": [97.69672954158142, 88.91854421965564]}}, {"type": "Feature", "properties": {"norad_id": 12458, "name": "NOVA 1", "group": "nnss", "lat": -73.06358258938431, "lon": -88.08972717366237, "alt_km": 1189.0631443174334, "timestamp": "2025-12-09T21:34:11.676356+00:00", "meta": {"OBJECT_NAME": "NOVA 1", "OBJECT_ID": "1981-044A", "EPOCH": "2025-12-09T13:05:31.890336", "MEAN_MOTION": 13.23277984, "ECCENTRICITY": 0.00158191, "INCLINATION": 89.8524, "RA_OF_ASC_NODE": 91.4303, "ARG_OF_PERICENTER": 111.8298, "MEAN_ANOMALY": 259.3047, "EPHEMERIS_TYPE": 0, "CLASSIFICATION_TYPE": "U", "NORAD_CAT_ID": 12458, "ELEMENT_SET_NO": 999, "REV_AT_EPOCH": 15144, "BSTAR": 0.00022171859, "MEAN_MOTION_DOT": 1.03e-06, "MEAN_MOTION_DDOT": 0}, "tle": {"line1": "1 12458U 81044A   25343.54550799  .00000103  00000+0  22172-3 0  9998", "line2": "2 12458  89.8524  91.4303 0015819 111.8298 259.3047 13.23277984151443"}}, "geometry": {"type": "Point", "coordinates": [-88.08972717366237, -73.06358258938431]}}, {"type": "Feature", "properties": {"norad_id": 15362, "name": "NOVA 3", "group": "nnss", "lat": 51.7587604770318, "lon": -99.34347801005248, "alt_km": 1188.0578725347195, "timestamp": "2025-12-09T21:34:11.676367+00:00", "meta": {"OBJECT_NAME": "NOVA 3", "OBJECT_ID": "1984-110A", "EPOCH": "2025-12-09T13:43:18.996096", "MEAN_MOTION": 13.23044071, "ECCENTRICITY": 0.00307346, "INCLINATION": 90.1223, "RA_OF_ASC_NODE": 80.4974, "ARG_OF_PERICENTER": 340.9141, "MEAN_ANOMALY": 30.4969, "EPHEMERIS_TYPE": 0, "CLASSIFICATION_TYPE": "U", "NORAD_CAT_ID": 15362, "ELEMENT_SET_NO": 999, "REV_AT_EPOCH": 98657, "BSTAR": 0.00021782152, "MEAN_MOTION_DOT": 1e-06, "MEAN_MOTION_DDOT": 0}, "tle": {"line1": "1 15362U 84110A   25343.57174764  .00000100  00000+0  21782-3 0  9992", "line2": "2 15362  90.1223  80.4974 0030734 340.9141  30.4969 13.23044071986578"}}, "geometry": {"type": "Point", "coordinates": [-99.34347801005248, 51.7587604770318]}}, {"type": "Feature", "properties": {"norad_id": 15935, "name": "OSCAR 30", "group": "nnss", "lat": 75.06528404390829, "lon": 99.18196492029264, "alt_km": 994.9818944128483, "timestamp": "2025-12-09T21:34:11.676377+00:00", "meta": {"OBJECT_NAME": "OSCAR 30", "OBJECT_ID": "1985-066A", "EPOCH": "2025-12-09T14:04:06.796992", "MEAN_MOTION": 13.36077589, "ECCENTRICITY": 0.01694086, "INCLINATION": 90.1649, "RA_OF_ASC_NODE": 99.7955, "ARG_OF_PERICENTER": 92.7045, "MEAN_ANOMALY": 280.464, "EPHEMERIS_TYPE": 0, "CLASSIFICATION_TYPE": "U", "NORAD_CAT_ID": 15935, "ELEMENT_SET_NO": 999, "REV_AT_EPOCH": 96411, "BSTAR": 0.00028064171, "MEAN_MOTION_DOT": 1.66e-06, "MEAN_MOTION_DDOT": 0}, "tle": {"line1": "1 15935U 85066A   25343.58618978  .00000166  00000+0  28064-3 0  9992", "line2": "2 15935  90.1649  99.7955 0169408  92.7045 280.4640 13.36077589964117"}}, "geometry": {"type": "Point", "coordinates": [99.18196492029264, 75.06528404390829]}}, {"type": "Feature", "properties": {"norad_id": 15936, "name": "OSCAR 24", "group": "nnss", "lat": 25.855362378445918, "lon": -87.65821760265858, "alt_km": 1050.1700689529807, "timestamp": "2025-12-09T21:34:11.676390+00:00", "meta": {"OBJECT_NAME": "OSCAR 24", "OBJECT_ID": "1985-066B", "EPOCH": "2025-12-09T13:41:01.087008", "MEAN_MOTION": 13.35935118, "ECCENTRICITY": 0.01704721, "INCLINATION": 90.1788, "RA_OF_ASC_NODE": 92.2493, "ARG_OF_PERICENTER": 99.1842, "MEAN_ANOMALY": 273.8521, "EPHEMERIS_TYPE": 0, "CLASSIFICATION_TYPE": "U", "NORAD_CAT_ID": 15936, "ELEMENT_SET_NO": 999, "REV_AT_EPOCH": 96601, "BSTAR": 0.00024604697, "MEAN_MOTION_DOT": 1.47e-06, "MEAN_MOTION_DDOT": 0}, "tle": {"line1": "1 15936U 85066B   25343.57015147  .00000147  00000+0  24605-3 0  9997", "line2": "2 15936  90.1788  92.2493 0170472  99.1842 273.8521 13.35935118966011"}}, "geometry": {"type": "Point", "coordinates": [-87.65821760265858, 25.855362378445918]}}]}